#dP2023  8  5 18  0  0.00000000      96 __u+U ITR00 EXT  IAC
## 2273 583200.00000000   900.00000000 60161 0.7500000000000
+  119   C06C07C08C09C10C11C12C13C14C16C19C20C21C22C23C24C25
+        C26C27C28C29C30C32C33C34C35C36C37C38C39C40C41C42C43
+        C44C45C46E02E03E04E05E07E08E09E10E11E12E13E14E15E18
+        E19E21E24E25E26E27E30E31E33E34E36G01G02G03G04G05G06
+        G07G08G09G10G11G12G13G14G15G16G17G18G19G20G21G22G23
+        G24G25G26G27G28G29G30G31G32J02J03J04R01R02R03R04R05
+        R07R08R09R11R12R13R14R15R16R17R18R19R20R21R22R24R25
++        10 10 10 10 11  8  8 10  9 10 10  8  7 10  7  9  8
++         7  9  8  8  8  8  9  7  7  9  9  8 10 11  7  9  7
++         6 10  8  7  8  9  7  7  7  8  8  8  8  7  8  7  7
++         9  8  7  7  8  8  8  7  7  7  7  7  8  7  8  8  8
++         7  8  8  7  8  7 10  7  6  7  8  7  8  8  7  8  7
++         7  8  8  6  7  9  8  8  7  9 10 10  9 10  6  9  8
++         7  9  7  9  9  7  7  7  8  7  9  8  8  8  8  8  8
%c M  cc GPS ccc cccc cccc cccc cccc ccccc ccccc ccccc ccccc
%c cc cc ccc ccc cccc cccc cccc cccc ccccc ccccc ccccc ccccc
%f  0.0000000  0.000000000  0.00000000000  0.000000000000000
%f  0.0000000  0.000000000  0.00000000000  0.000000000000000
%i    0    0    0    0      0      0      0      0         0
%i    0    0    0    0      0      0      0      0         0
/* IAC                                ULTRA-RAPID PREDICTION
/* S/V CLOCKS ARE ALIGNED TO GNSS TIME                      
/* G:C1WC2W R:C1PC2P E:C1XC5X C:C2IC6I J:C1CC2S             
/* PCV:IGS20_2247 OL/AL:FES2004  NONE     YN ORB:CoN CLK:CoN
*  2023 08 06  2  0  0.00000000
PC06 -11500.405271  22776.775340 -33583.078777    800.213480
PC07 -14859.040816  38558.504605   7839.195851    114.131484
PC08    756.459831  34643.460221  24141.219326    401.142256
PC09  -1182.062826  24380.294069 -33921.657417    327.550034
PC10  -8999.376945  38681.907471  13623.273221   -136.642047
PC11   3504.185629 -15457.938263 -22906.935538    764.372082
PC12  22174.243547 -10723.285620 -13100.154888    847.145649
PC13   5481.214391  37600.534241  18698.708565    329.117535
PC14   5544.760812 -26231.124876   7861.724831    179.058481
PC16 -13689.358162  21565.145534 -33340.002165    -23.614073
PC19   1751.160164  22889.344342 -15831.421850   -953.987661
PC20 -10950.184583  25646.504438   -325.122501    382.810647
PC21  18128.415504 -13088.391207 -16705.833129   -945.025246
PC22  14159.560500   6780.562103 -23078.572439   -363.945222
PC23 -20459.587375 -16604.044699  -9175.087081   -915.542696
PC24   5375.318161 -17914.200485  20700.576610    252.863380
PC25 -11951.630647 -24101.468847   7375.822839    183.377807
PC26  17718.145212  -2317.081232  21431.135039   -159.139683
PC27 -26590.888814   6498.238839   5418.985323    180.271396
PC28 -25303.331196  -4902.263649 -10686.149634    134.695989
PC29   8408.681861  14538.454985  22279.687849    157.071654
PC30 -13564.727543  15315.420869  18976.063875     -3.096637
PC32 -18039.245497  13079.904176  16799.584086   -533.909446
PC33  -1823.549223 -22974.957681  15746.112372   -930.151640
PC34  12096.163576 -15646.071287 -19696.397654    230.865782
PC35  25312.354667   4205.460452  10921.468041    573.678155
PC36  10829.036300  24419.778125  -8053.888911   -291.095883
PC37 -18184.244338    985.482818 -21120.586712   -802.869419
PC38  -5969.946903  30361.316015  28734.303224     96.326695
PC39 -19801.632711  20420.714691 -31154.875468     -4.165971
PC40 -22451.430393  35057.768220   5682.550204    -31.898775
PC41 -13871.606601  -7553.492954  23053.125847   -892.091296
PC42  11727.800103 -25316.310293  -1038.666942   -587.218550
PC43  -7433.519603 -14927.127782 -22388.702374     34.003590
PC44  26364.331508  -7444.677524  -5263.497432    191.252264
PC45  20518.545306  16259.991019   9698.895445    -10.596274
PC46  -4094.934748  18820.502978 -20200.972453    -74.380718
PE02  16734.390230   5682.367386  23749.890712     53.986446
PE03  24733.899297  -3304.048459 -15935.461312    -43.154348
PE04 -23868.091535  17443.289657  -1452.433166   -182.972425
PE05  11147.132270  12916.604032 -24185.944672      6.362703
PE07   9252.719503 -21572.169790  18045.337579    -65.284068
PE08  24029.133703 -17265.468721   1064.913640   -125.845404
PE09  -9419.961609  21504.304771 -18016.807158   -110.314834
PE10  -9385.063020  13165.948777  24780.396721   -553.957492
PE11   2070.052190  17875.064748  23484.691779   2660.062940
PE12 -18457.361719   6939.414179  22069.362666   -646.834566
PE13  -1320.186299 -17587.970006 -23775.015085    -19.397315
PE14  10884.099087  12214.896434  19052.118130    303.105211
PE15  18726.422679  -6640.617932 -21942.803598    -42.845252
PE18  -3433.446525 -20495.128061 -23391.541591    380.436189
PE19 -23637.966647   1075.519735  17789.866630  -1914.025181
PE21 -11040.192199 -23849.934095 -13616.311763   -544.982304
PE24  -1913.397828  29028.865463  -5517.703520   -249.936872
PE25  10871.525063  24084.993539  13348.168938   -609.404783
PE26 -20789.475031 -17981.139616 -10975.255996    184.406402
PE27   1378.340090 -29154.199132   4927.069016   -117.406846
PE30  13139.402841 -16745.865908  20563.402535   -394.840541
PE31 -12830.996225  17241.305264 -20340.257897     -2.017453
PE33 -27550.432227  -8483.698567   6686.873130     -1.845022
PE34  27559.913762   7977.540300  -7322.526839    -59.999389
PE36  20319.049145  18089.076041  11661.034877    -96.788733
PG01 -21705.734909 -15055.743489  -4519.050649    169.726946
PG02 -18902.450880 -15437.889046 -10165.566177   -568.550452
PG03 -12342.983713 -15861.431188  17278.892248   -200.515548
PG04 -17241.428003  -5498.403420  19490.515956    117.063115
PG05   5509.209632  25567.161998  -4471.476854   -137.698759
PG06 -11419.660193  10167.415381  21790.404812    569.980077
PG07 -24257.483237  -4535.696581  -9962.910000    104.006131
PG08  -7425.027260 -13436.803149 -21732.000108   -135.785383
PG09 -22487.891944   3602.691228  13623.158267    -93.952434
PG10  11232.731276 -15759.177033 -17865.405134    -48.114231
PG11   3425.794467  17642.981650  19579.772708   -307.964536
PG12   9751.950364  19697.891759  14687.837335   -409.486051
PG13  -2257.141928  16653.455970 -20702.084828    556.519754
PG14 -13522.252379  12402.090404 -19125.336564    145.186135
PG15   9898.652332  12626.675896 -21636.618264     64.918769
PG16    471.963198 -26301.585245   -847.101674   -471.909126
PG17 -22437.970350  14214.759786   2149.711109    722.287436
PG18  23111.199942   2393.531550 -13025.205836   -372.295439
PG19 -18697.844465  16216.474211   8960.641921    353.782318
PG20    627.927647  25748.314896   6910.621342    418.764488
PG21 -17329.383309 -16270.006830 -12183.206423    151.176812
PG22  15402.194004 -17937.119576  12396.054899    523.056589
PG23  14751.956449  -2372.899830 -21949.328010     51.626480
PG24  19991.762553  15460.825134  -9199.609770   -280.932391
PG25  15109.985806   6310.747122  20647.974998    460.501280
PG26   5329.240705 -23407.460120  10860.473313    234.018007
PG27   5138.145650 -18494.766672 -18428.215037    -16.843125
PG28  13179.949202  -9854.210564  20827.602869     78.497724
PG29  22418.944863  -1170.929488  14225.419246   -607.191169
PG30 -19675.268651   4145.713399 -17361.144935   -498.731378
PG31   2699.717400 -15563.195690  21115.187070   -221.348707
PG32  19834.345605 -16918.498004   4672.916575   -535.281552
PJ02 -21965.565496  28458.715051 -17339.270411     -2.192447
PJ03 -28894.515868  23351.352416  24947.055581     -0.710717
PJ04 -29067.803041  30004.292069  11543.423082     98.394020
PR01  10113.876887 -22276.263864   7243.282652     62.902678
PR02  -1982.207499 -14411.789984  20976.206296    -22.554406
PR03 -13256.246925   1262.892813  21811.242301     82.742008
PR04 -16919.877513  15814.153787  10732.254781    197.550892
PR05 -11615.737281  21860.215181  -6197.969251    116.877003
PR07  13563.449715  -1997.385585 -21461.835654     61.784325
PR08  16809.087339 -16049.866962 -10420.786174    -71.990532
PR09  12334.671949  22243.236282   1265.052121    135.151381
PR11  10055.958932  -4371.261958  23045.663438   -124.207364
PR12  -1654.800006 -20168.270696  15553.974303     29.878805
PR13 -11210.783494 -22898.820405    823.441406    -37.852544
PR14 -15089.173606 -11778.344045 -16853.696660     25.059161
PR15  -9541.220231   5633.109798 -22949.888141     87.244781
PR16   1706.748384  19939.197350 -15778.164798     17.414537
PR17 -24741.532624  -3996.332039  -4610.330212      6.302928
PR18 -22357.200974   3412.362380  11849.748505     95.322604
PR19 -10195.684991   8552.846157  21754.175171   -242.461304
PR20  12292.795935  10312.899586  19821.027332    -97.818758
PR21  25026.699845   3653.414186   3446.070255    -28.195536
PR22  21933.125330  -3342.112438 -12557.338604    108.189913
PR24 -13231.061786 -10151.532389 -19279.855662    -19.377000
PR25  24551.982494   5193.354137   4648.745253     44.013396
EOF
